C
GLOBALSTAR M079 [+]     
1 37188U 10054A   21077.74599534 -.00000092  00000-0  66906-4 0  9993
2 37188  52.0031 182.6302 0000822 103.8756  54.0150 12.62265556480641
GLOBALSTAR M074 [+]     
1 37189U 10054B   21077.77389139 -.00000082  00000-0  12262-3 0  9999
2 37189  52.0009 182.1080 0000835  98.5490  67.1756 12.62269440481176
GLOBALSTAR M076 [+]     
1 37190U 10054C   21078.49398622 -.00000094  00000-0  56905-4 0  9994
2 37190  52.0024 179.9443 0001047 127.0509 312.2814 12.62266332481308
GLOBALSTAR M077 [+]     
1 37191U 10054D   21077.70453476 -.00000099  00000-0  28554-4 0  9991
2 37191  52.0060 138.7598 0000565 116.6070  33.3405 12.62267331481356
GLOBALSTAR M075 [+]     
1 37192U 10054E   21077.88636076 -.00000093  00000-0  62027-4 0  9997
2 37192  51.9933 224.9103 0000923 101.1704  35.6734 12.62265181480186
GLOBALSTAR M073 [+]     
1 37193U 10054F   21078.41373352 -.00000097  00000-0  36009-4 0  9998
2 37193  52.0048 135.9504 0000531 118.4935 254.8603 12.62266292482045
GLOBALSTAR M083 [+]     
1 37739U 11033A   21077.58631462 -.00000113  00000-0 -50465-4 0  9990
2 37739  51.9854  89.3158 0000585  67.8357  84.9496 12.62246528451267
GLOBALSTAR M088 [+]     
1 37740U 11033B   21077.84900049 -.00000097  00000-0  36302-4 0  9995
2 37740  51.9762 355.3141 0000900  78.5497 308.8804 12.62263559446774
GLOBALSTAR M091 [+]     
1 37741U 11033C   21078.12098250 -.00000093  00000-0  58474-4 0  9990
2 37741  52.0008 315.2654 0000848  81.5813  41.6281 12.62265619447569
GLOBALSTAR M085 [+]     
1 37742U 11033D   21077.95545576 -.00000103  00000-0  33140-5 0  9995
2 37742  51.9851 268.1794 0000840  86.8133  64.2855 12.62265123447928
GLOBALSTAR M081 [+]     
1 37743U 11033E   21077.88919240 -.00000100  00000-0  20183-4 0  9990
2 37743  51.9944 270.2120 0001036  96.7776 352.4597 12.62269467448055
GLOBALSTAR M089 [+]     
1 37744U 11033F   21077.86468019 -.00000101  00000-0  14274-4 0  9997
2 37744  51.9917 224.8039 0000628 123.6878  34.7344 12.62269052449027
GLOBALSTAR M084 [+]     
1 38040U 11080A   21077.64045546 -.00000106  00000-0 -14250-4 0  9991
2 38040  51.9997  91.9581 0000434 132.9736  25.4379 12.62263711426847
GLOBALSTAR M080 [+]     
1 38041U 11080B   21077.61376272 -.00000112  00000-0 -47641-4 0  9999
2 38041  52.0049  93.1012 0000494 139.3505  17.4040 12.62268583426929
GLOBALSTAR M082 [+]     
1 38042U 11080C   21078.22936181 -.00000114  00000-0 -56695-4 0  9990
2 38042  52.0087  46.5085 0000698  54.5490 321.2188 12.62264538427804
GLOBALSTAR M092 [+]     
1 38043U 11080D   21077.75478091 -.00000096  00000-0  44724-4 0  9997
2 38043  52.0073 138.2440 0000279 157.1098 341.7918 12.62262827426191
GLOBALSTAR M090 [+]     
1 38044U 11080E   21077.94387160 -.00000114  00000-0 -55635-4 0  9990
2 38044  51.9900  43.1860 0000591  79.6879 318.2608 12.62265905427715
GLOBALSTAR M086 [+]     
1 38045U 11080F   21078.20244729 -.00000114  00000-0 -57881-4 0  9999
2 38045  51.9911  42.8296 0001577 124.7857 248.5004 12.62265356427793
GLOBALSTAR M097 [+]     
1 39072U 13005A   21077.83028675 -.00000087  00000-0  93574-4 0  9994
2 39072  52.0057 316.9328 0001128  95.6806 264.4189 12.62267770374974
GLOBALSTAR M093 [+]     
1 39073U 13005B   21078.12010067 -.00000097  00000-0  37936-4 0  9995
2 39073  51.9817 311.8361 0001212  79.8466 280.2537 12.62266642375003
GLOBALSTAR M094 [+]     
1 39074U 13005C   21077.80368583 -.00000098  00000-0  29472-4 0  9996
2 39074  51.9943 225.6315 0000921  99.1194 260.9777 12.62267279376452
GLOBALSTAR M096 [+]     
1 39075U 13005D   21077.89598607 -.00000096  00000-0  43816-4 0  9994
2 39075  52.0059 272.6525 0001060  89.2873 270.8115 12.62267718375528
GLOBALSTAR M078 [+]     
1 39076U 13005E   21077.86956027 -.00000032  00000-0  39952-3 0  9991
2 39076  51.9902 359.3516 0000981  22.2235 337.8674 12.62269047374178
GLOBALSTAR M095 [+]     
1 39077U 13005F   21077.73736265 -.00000091  00000-0  70533-4 0  9994
2 39077  51.9828 357.7216 0000993  47.9698 312.1253 12.62265357374017
